OBJECT_NAME,OBJECT_ID,EPOCH,MEAN_MOTION,ECCENTRICITY,INCLINATION,RA_OF_ASC_NODE,ARG_OF_PERICENTER,MEAN_ANOMALY,EPHEMERIS_TYPE,CLASSIFICATION_TYPE,NORAD_CAT_ID,ELEMENT_SET_NO,REV_AT_EPOCH,BSTAR,MEAN_MOTION_DOT,MEAN_MOTION_DDOT
GPS BIIR-5  (PRN 22),2000-040A,2026-06-18T07:11:10.892832,2.00557654,.01210298,54.8512,215.1181,302.4802,64.4063,0,U,26407,999,18997,0,.28E-6,0
GPS BIIR-8  (PRN 16),2003-005A,2026-06-18T04:04:26.262624,2.00560488,.01479336,54.8819,214.9299,53.0829,356.1720,0,U,27663,999,17133,0,.3E-6,0
GPS BIIR-11 (PRN 19),2004-009A,2026-06-17T09:42:22.087584,2.00554656,.01161589,54.8295,275.6785,173.0888,196.7015,0,U,28190,999,16295,0,-.37E-6,0
GPS BIIR-13 (PRN 02),2004-045A,2026-06-18T07:44:43.331136,2.00555864,.0169887,55.1350,324.8502,316.4507,61.3171,0,U,28474,999,15845,0,-.87E-6,0
GPS BIIRM-1 (PRN 17),2005-038A,2026-06-17T08:33:38.351232,2.00565592,.0127864,54.8779,273.1707,296.1609,67.8202,0,U,28874,999,15184,0,-.33E-6,0
INMARSAT 4-F2 (SOUTHPAN/PRN 122),2005-044A,2026-06-17T23:55:00.458112,1.00270030,.00028547,5.0971,43.7054,35.4184,329.3507,0,U,28899,999,7553,0,-.269E-5,0
GPS BIIRM-2 (PRN 31),2006-042A,2026-06-18T03:07:36.765696,2.00569747,.01066492,54.7109,151.3015,54.4413,46.6051,0,U,29486,999,14441,0,.49E-6,0
GPS BIIRM-3 (PRN 12),2006-052A,2026-06-16T10:06:35.618112,2.00557832,.00852186,54.9348,214.0365,90.8278,270.2339,0,U,29601,999,14339,0,.54E-6,0
GPS BIIRM-4 (PRN 15),2007-047A,2026-06-16T05:27:46.728288,2.00555202,.01667436,54.0946,80.1052,87.3620,274.5508,0,U,32260,999,13679,0,-.35E-6,0
COSMOS 2433 (720),2007-052A,2026-06-18T07:45:41.429952,2.13104002,.00025384,65.5761,315.8954,193.3913,166.5902,0,U,32275,999,14508,0,-.55E-6,0
COSMOS 2432 (719),2007-052B,2026-06-16T12:23:35.378016,2.13103061,.00076789,65.5946,316.0841,331.5202,26.0613,0,U,32276,999,14506,0,-.55E-6,0
GPS BIIRM-5 (PRN 29),2007-062A,2026-06-16T12:50:22.410240,2.00560015,.00357024,55.0322,274.1789,165.2122,184.0447,0,U,32384,999,13549,0,-.29E-6,0
COSMOS 2434 (721),2007-065A,2026-06-17T03:43:05.101824,2.13101292,.00011976,64.3178,191.9169,336.0402,97.3647,0,U,32393,999,14377,0,.65E-6,0
COSMOS 2436 (723),2007-065C,2026-06-18T01:22:24.273696,2.13100047,.00172535,64.3266,191.9586,353.8903,184.0416,0,U,32395,999,14374,0,.58E-6,0
GPS BIIRM-6 (PRN 07),2008-012A,2026-06-18T03:11:52.098432,2.00572404,.02112722,54.4975,149.8869,247.8593,109.8588,0,U,32711,999,13377,0,.48E-6,0
GPS BIIRM-8 (PRN 05),2009-043A,2026-06-16T06:48:23.933376,2.00554227,.0053768,56.2097,27.4871,83.1336,31.1253,0,U,35752,999,12334,0,-.73E-6,0
COSMOS 2456 (730),2009-070A,2026-06-16T03:42:15.751008,2.13103754,.0004648,65.0107,71.0074,331.0109,212.9328,0,U,36111,999,12840,0,-.23E-6,0
COSMOS 2457 (733),2009-070B,2026-06-18T07:58:32.353824,2.13101036,.00029174,64.9975,70.7771,122.0762,60.1336,0,U,36112,999,12845,0,-.27E-6,0
COSMOS 2460 (732),2010-007C,2026-06-13T20:48:05.350176,2.13101719,.00021218,65.4226,314.5793,106.9290,251.4243,0,U,36402,999,12665,0,-.52E-6,0
GPS BIIF-1  (PRN 25),2010-022A,2026-06-16T12:34:16.701888,2.00562332,.01263085,54.2702,208.5888,66.1160,340.2016,0,U,36585,999,11758,0,.55E-6,0
BEIDOU-2 IGSO-1 (C06),2010-036A,2026-06-17T22:01:50.166336,1.00271928,.0059238,54.3019,162.9525,225.3267,315.9903,0,U,36828,999,5810,0,-.86E-6,0
BEIDOU-2 G4 (C04),2010-057A,2026-06-18T03:25:03.173376,1.00270614,.00053154,3.6494,68.9384,196.4016,212.3040,0,U,37210,999,5730,0,-.12E-5,0
BEIDOU-2 IGSO-2 (C07),2010-068A,2026-06-15T20:29:59.130240,1.00282881,.0055883,47.5513,271.8488,212.6776,194.9519,0,U,37256,999,5678,0,-.214E-5,0
BEIDOU-2 IGSO-3 (C08),2011-013A,2026-06-17T15:19:34.540608,1.00267211,.00345609,62.4080,40.1465,184.2780,19.0427,0,U,37384,999,5566,0,-.188E-5,0
GSAT-8 (GAGAN/PRN 127),2011-022A,2026-06-18T04:37:44.132160,1.00271800,.00021232,2.1346,81.8127,199.1293,110.0119,0,U,37605,999,5322,0,.78E-6,0
BEIDOU-2 IGSO-4 (C09),2011-038A,2026-06-16T16:27:02.962080,1.00285273,.01595197,54.6000,165.6770,231.4431,207.9860,0,U,37763,999,5464,0,.19E-6,0
GSAT0101 (GALILEO-PFM),2011-060A,2026-06-16T20:21:41.873184,1.70475567,.00029968,56.9944,341.7702,53.3752,306.6473,0,U,37846,999,9111,0,-.88E-6,0
GSAT0102 (GALILEO-FM2),2011-060B,2026-06-15T14:11:42.824832,1.70475803,.00031675,56.9958,341.8048,14.2663,339.9688,0,U,37847,999,9109,0,-.84E-6,0
COSMOS 2476 (744),2011-064A,2026-06-18T03:33:00.027072,2.13103744,.00226907,65.2703,72.8392,238.8568,302.8190,0,U,37867,999,11378,0,-.23E-6,0
COSMOS 2477 (745),2011-064B,2026-06-17T10:29:38.546016,2.13102918,.00196761,65.2764,72.9425,240.1496,296.6640,0,U,37868,999,11376,0,-.21E-6,0
COSMOS 2475 (743),2011-064C,2026-06-18T08:24:14.990400,2.13101711,.00254369,65.2838,72.9333,253.1799,219.1108,0,U,37869,999,11379,0,-.24E-6,0
